CCSDS_OMM_VERS = 2.0
CREATION_DATE  = 
ORIGINATOR     = 

OBJECT_NAME    = STARLINK-36916
OBJECT_ID      = 2026-040H
CENTER_NAME    = EARTH
REF_FRAME      = TEME
TIME_SYSTEM    = UTC
MEAN_ELEMENT_THEORY = SGP/SGP4

EPOCH          = 2026-03-27T20:00:01.999008
MEAN_MOTION    = 15.72356541
ECCENTRICITY   = .0001459
INCLINATION    = 97.2858
RA_OF_ASC_NODE = 36.1828
ARG_OF_PERICENTER = 93.9924
MEAN_ANOMALY   = 202.2032

EPHEMERIS_TYPE = 0
CLASSIFICATION_TYPE = U
NORAD_CAT_ID   = 68022
ELEMENT_SET_NO = 999
REV_AT_EPOCH   = 534
BSTAR          = -.16449E-1
MEAN_MOTION_DOT = -.1892105E-1
MEAN_MOTION_DDOT = 0

CCSDS_OMM_VERS = 2.0
CREATION_DATE  = 
ORIGINATOR     = 

OBJECT_NAME    = STARLINK-36871
OBJECT_ID      = 2026-040J
CENTER_NAME    = EARTH
REF_FRAME      = TEME
TIME_SYSTEM    = UTC
MEAN_ELEMENT_THEORY = SGP/SGP4

EPOCH          = 2026-03-27T20:14:54.453120
MEAN_MOTION    = 15.75237638
ECCENTRICITY   = .0000851
INCLINATION    = 97.2840
RA_OF_ASC_NODE = 36.1925
ARG_OF_PERICENTER = 123.5375
MEAN_ANOMALY   = 236.5972

EPHEMERIS_TYPE = 0
CLASSIFICATION_TYPE = U
NORAD_CAT_ID   = 68023
ELEMENT_SET_NO = 999
REV_AT_EPOCH   = 421
BSTAR          = .13198E-2
MEAN_MOTION_DOT = .201862E-2
MEAN_MOTION_DDOT = 0

CCSDS_OMM_VERS = 2.0
CREATION_DATE  = 
ORIGINATOR     = 

OBJECT_NAME    = STARLINK-36891
OBJECT_ID      = 2026-040K
CENTER_NAME    = EARTH
REF_FRAME      = TEME
TIME_SYSTEM    = UTC
MEAN_ELEMENT_THEORY = SGP/SGP4

EPOCH          = 2026-03-27T20:13:53.726016
MEAN_MOTION    = 15.75238981
ECCENTRICITY   = .0001281
INCLINATION    = 97.2867
RA_OF_ASC_NODE = 36.1942
ARG_OF_PERICENTER = 105.8458
MEAN_ANOMALY   = 254.2948

EPHEMERIS_TYPE = 0
CLASSIFICATION_TYPE = U
NORAD_CAT_ID   = 68024
ELEMENT_SET_NO = 999
REV_AT_EPOCH   = 421
BSTAR          = .11453E-2
MEAN_MOTION_DOT = .174611E-2
MEAN_MOTION_DDOT = 0

CCSDS_OMM_VERS = 2.0
CREATION_DATE  = 
ORIGINATOR     = 

OBJECT_NAME    = STARLINK-36378
OBJECT_ID      = 2026-040L
CENTER_NAME    = EARTH
REF_FRAME      = TEME
TIME_SYSTEM    = UTC
MEAN_ELEMENT_THEORY = SGP/SGP4

EPOCH          = 2026-03-27T20:11:51.740448
MEAN_MOTION    = 15.75268467
ECCENTRICITY   = .0001688
INCLINATION    = 97.2857
RA_OF_ASC_NODE = 36.1987
ARG_OF_PERICENTER = 114.0948
MEAN_ANOMALY   = 246.0494

EPHEMERIS_TYPE = 0
CLASSIFICATION_TYPE = U
NORAD_CAT_ID   = 68025
ELEMENT_SET_NO = 999
REV_AT_EPOCH   = 421
BSTAR          = .14943E-2
MEAN_MOTION_DOT = .229625E-2
MEAN_MOTION_DDOT = 0

CCSDS_OMM_VERS = 2.0
CREATION_DATE  = 
ORIGINATOR     = 

OBJECT_NAME    = STARLINK-36884
OBJECT_ID      = 2026-040M
CENTER_NAME    = EARTH
REF_FRAME      = TEME
TIME_SYSTEM    = UTC
MEAN_ELEMENT_THEORY = SGP/SGP4

EPOCH          = 2026-03-27T20:12:22.327776
MEAN_MOTION    = 15.75249298
ECCENTRICITY   = .0000861
INCLINATION    = 97.2864
RA_OF_ASC_NODE = 36.1963
ARG_OF_PERICENTER = 85.4974
MEAN_ANOMALY   = 274.6390

EPHEMERIS_TYPE = 0
CLASSIFICATION_TYPE = U
NORAD_CAT_ID   = 68026
ELEMENT_SET_NO = 999
REV_AT_EPOCH   = 421
BSTAR          = .1381E-2
MEAN_MOTION_DOT = .211588E-2
MEAN_MOTION_DDOT = 0

CCSDS_OMM_VERS = 2.0
CREATION_DATE  = 
ORIGINATOR     = 

OBJECT_NAME    = STARLINK-36940
OBJECT_ID      = 2026-040N
CENTER_NAME    = EARTH
REF_FRAME      = TEME
TIME_SYSTEM    = UTC
MEAN_ELEMENT_THEORY = SGP/SGP4

EPOCH          = 2026-03-27T19:59:39.808032
MEAN_MOTION    = 15.75235329
ECCENTRICITY   = .000158
INCLINATION    = 97.2853
RA_OF_ASC_NODE = 36.2150
ARG_OF_PERICENTER = 92.9808
MEAN_ANOMALY   = 267.1638

EPHEMERIS_TYPE = 0
CLASSIFICATION_TYPE = U
NORAD_CAT_ID   = 68027
ELEMENT_SET_NO = 999
REV_AT_EPOCH   = 421
BSTAR          = .17193E-2
MEAN_MOTION_DOT = .264956E-2
MEAN_MOTION_DDOT = 0

CCSDS_OMM_VERS = 2.0
CREATION_DATE  = 
ORIGINATOR     = 

OBJECT_NAME    = STARLINK-36253
OBJECT_ID      = 2026-040P
CENTER_NAME    = EARTH
REF_FRAME      = TEME
TIME_SYSTEM    = UTC
MEAN_ELEMENT_THEORY = SGP/SGP4

EPOCH          = 2026-03-27T20:00:01.999008
MEAN_MOTION    = 15.37747562
ECCENTRICITY   = .0003205
INCLINATION    = 97.3014
RA_OF_ASC_NODE = 35.6853
ARG_OF_PERICENTER = 96.5556
MEAN_ANOMALY   = 113.8470

EPHEMERIS_TYPE = 0
CLASSIFICATION_TYPE = U
NORAD_CAT_ID   = 68028
ELEMENT_SET_NO = 999
REV_AT_EPOCH   = 544
BSTAR          = -.58271E-1
MEAN_MOTION_DOT = -.1930915E-1
MEAN_MOTION_DDOT = 0

CCSDS_OMM_VERS = 2.0
CREATION_DATE  = 
ORIGINATOR     = 

OBJECT_NAME    = STARLINK-36944
OBJECT_ID      = 2026-040Q
CENTER_NAME    = EARTH
REF_FRAME      = TEME
TIME_SYSTEM    = UTC
MEAN_ELEMENT_THEORY = SGP/SGP4

EPOCH          = 2026-03-27T20:10:50.546784
MEAN_MOTION    = 15.75277247
ECCENTRICITY   = .0001223
INCLINATION    = 97.2867
RA_OF_ASC_NODE = 36.1967
ARG_OF_PERICENTER = 105.1535
MEAN_ANOMALY   = 254.9866

EPHEMERIS_TYPE = 0
CLASSIFICATION_TYPE = U
NORAD_CAT_ID   = 68029
ELEMENT_SET_NO = 999
REV_AT_EPOCH   = 421
BSTAR          = .18394E-2
MEAN_MOTION_DOT = .284651E-2
MEAN_MOTION_DDOT = 0

CCSDS_OMM_VERS = 2.0
CREATION_DATE  = 
ORIGINATOR     = 

OBJECT_NAME    = STARLINK-36942
OBJECT_ID      = 2026-040R
CENTER_NAME    = EARTH
REF_FRAME      = TEME
TIME_SYSTEM    = UTC
MEAN_ELEMENT_THEORY = SGP/SGP4

EPOCH          = 2026-03-27T20:09:49.819680
MEAN_MOTION    = 15.75249802
ECCENTRICITY   = .0001673
INCLINATION    = 97.2847
RA_OF_ASC_NODE = 36.2010
ARG_OF_PERICENTER = 102.7561
MEAN_ANOMALY   = 257.3891

EPHEMERIS_TYPE = 0
CLASSIFICATION_TYPE = U
NORAD_CAT_ID   = 68030
ELEMENT_SET_NO = 999
REV_AT_EPOCH   = 421
BSTAR          = .12662E-2
MEAN_MOTION_DOT = .193568E-2
MEAN_MOTION_DDOT = 0

CCSDS_OMM_VERS = 2.0
CREATION_DATE  = 
ORIGINATOR     = 

OBJECT_NAME    = STARLINK-36913
OBJECT_ID      = 2026-040S
CENTER_NAME    = EARTH
REF_FRAME      = TEME
TIME_SYSTEM    = UTC
MEAN_ELEMENT_THEORY = SGP/SGP4

EPOCH          = 2026-03-27T20:00:01.999008
MEAN_MOTION    = 15.67216608
ECCENTRICITY   = .000154
INCLINATION    = 97.2852
RA_OF_ASC_NODE = 36.1872
ARG_OF_PERICENTER = 101.7655
MEAN_ANOMALY   = 196.7474

EPHEMERIS_TYPE = 0
CLASSIFICATION_TYPE = U
NORAD_CAT_ID   = 68031
ELEMENT_SET_NO = 999
REV_AT_EPOCH   = 534
BSTAR          = -.20277E-1
MEAN_MOTION_DOT = -.1921715E-1
MEAN_MOTION_DDOT = 0

CCSDS_OMM_VERS = 2.0
CREATION_DATE  = 
ORIGINATOR     = 

OBJECT_NAME    = STARLINK-36935
OBJECT_ID      = 2026-040T
CENTER_NAME    = EARTH
REF_FRAME      = TEME
TIME_SYSTEM    = UTC
MEAN_ELEMENT_THEORY = SGP/SGP4

EPOCH          = 2026-03-27T20:01:41.962080
MEAN_MOTION    = 15.75241727
ECCENTRICITY   = .0001302
INCLINATION    = 97.2860
RA_OF_ASC_NODE = 36.2096
ARG_OF_PERICENTER = 86.0552
MEAN_ANOMALY   = 274.0862

EPHEMERIS_TYPE = 0
CLASSIFICATION_TYPE = U
NORAD_CAT_ID   = 68032
ELEMENT_SET_NO = 999
REV_AT_EPOCH   = 421
BSTAR          = .11171E-2
MEAN_MOTION_DOT = .170242E-2
MEAN_MOTION_DDOT = 0

CCSDS_OMM_VERS = 2.0
CREATION_DATE  = 
ORIGINATOR     = 

OBJECT_NAME    = STARLINK-36947
OBJECT_ID      = 2026-040U
CENTER_NAME    = EARTH
REF_FRAME      = TEME
TIME_SYSTEM    = UTC
MEAN_ELEMENT_THEORY = SGP/SGP4

EPOCH          = 2026-03-27T20:07:47.895456
MEAN_MOTION    = 15.75259027
ECCENTRICITY   = .000174
INCLINATION    = 97.2847
RA_OF_ASC_NODE = 36.2026
ARG_OF_PERICENTER = 94.9034
MEAN_ANOMALY   = 265.2430

EPHEMERIS_TYPE = 0
CLASSIFICATION_TYPE = U
NORAD_CAT_ID   = 68033
ELEMENT_SET_NO = 999
REV_AT_EPOCH   = 421
BSTAR          = .14452E-2
MEAN_MOTION_DOT = .221781E-2
MEAN_MOTION_DDOT = 0

